GLOBALSTAR M024         
1 25883U 99043A   24217.89987884  .00000005  00000+0  24631-2 0  9990
2 25883  52.0052  14.2725 0000758 333.1784 143.2024 11.10160704 79735
GLOBALSTAR M027         
1 25884U 99043B   24217.88320297 -.00000006  00000+0  21691-2 0  9994
2 25884  52.0215  83.3309 0020689 199.2944 160.7067 11.04369378106290
GLOBALSTAR M054         
1 25885U 99043C   24218.15811017 -.00000019  00000+0  13293-2 0  9994
2 25885  52.0115 263.0563 0004846 357.4636  36.7457 11.39211514 83365
GLOBALSTAR M053         
1 25886U 99043D   24217.87422708 -.00000089  00000+0 -60359-3 0  9992
2 25886  51.9948 193.2783 0003740 269.8443 100.4381 11.27657449 83767
GLOBALSTAR M058         
1 25907U 99049A   24218.15725563 -.00000059  00000+0  34277-3 0  9995
2 25907  51.9908 233.0482 0002100  28.1356 331.9592 11.93179676115028
GLOBALSTAR M050         
1 25908U 99049B   24218.50559824 -.00000125  00000+0 -41789-3 0  9991
2 25908  51.9971 263.3798 0009292 124.1254  21.9963 12.07437392114786
GLOBALSTAR M033         
1 25909U 99049C   24217.85079390 -.00000096  00000+0 -44314-4 0  9999
2 25909  51.9901 158.8592 0012924 337.2581  22.7692 12.20274228497128
GLOBALSTAR M055         
1 25910U 99049D   24218.88980759 -.00000088  00000+0  55186-4 0  9994
2 25910  51.9996 182.0258 0006777 197.0582 163.0042 12.29405703129723
